{
  "type": "FeatureCollection",
  "features": [
    {
      "type": "Feature",
      "properties": {
        "norad_id": 19071,
        "name": "OSCAR 32",
        "group": "nnss",
        "lat": 52.90271443758522,
        "lon": 15.910472237565529,
        "alt_km": 1240.1558314309314,
        "timestamp": "2025-12-06T16:45:42.990589+00:00",
        "meta_object_name": "OSCAR 32",
        "meta_object_id": "1988-033B",
        "meta_epoch": "2025-12-06T02:09:53.845056",
        "meta_mean_motion": 13.27952759,
        "meta_eccentricity": 0.01877989,
        "meta_inclination": 90.3223,
        "meta_ra_of_asc_node": 16.3179,
        "meta_arg_of_pericenter": 185.2777,
        "meta_mean_anomaly": 203.4142,
        "meta_ephemeris_type": 0,
        "meta_classification_type": "U",
        "meta_norad_cat_id": 19071,
        "meta_element_set_no": 999,
        "meta_rev_at_epoch": 82177,
        "meta_bstar": 0.00024557881,
        "meta_mean_motion_dot": 1.31e-06,
        "meta_mean_motion_ddot": 0,
        "tle_line1": "1 19071U 88033B   25340.09020654  .00000131  00000+0  24558-3 0  9991",
        "tle_line2": "2 19071  90.3223  16.3179 0187798 185.2777 203.4142 13.27952759821774"
      },
      "geometry": {
        "type": "Point",
        "coordinates": [
          15.910472237565529,
          52.90271443758522
        ]
      }
    },
    {
      "type": "Feature",
      "properties": {
        "norad_id": 19223,
        "name": "NOVA 2",
        "group": "nnss",
        "lat": 0.5187956194969285,
        "lon": 78.27996511436496,
        "alt_km": 1156.5389812783833,
        "timestamp": "2025-12-06T16:45:42.990600+00:00",
        "meta_object_name": "NOVA 2",
        "meta_object_id": "1988-052A",
        "meta_epoch": "2025-12-06T05:57:11.395584",
        "meta_mean_motion": 13.2293488,
        "meta_eccentricity": 0.00311133,
        "meta_inclination": 89.9873,
        "meta_ra_of_asc_node": 78.2804,
        "meta_arg_of_pericenter": 34.39,
        "meta_mean_anomaly": 342.7792,
        "meta_ephemeris_type": 0,
        "meta_classification_type": "U",
        "meta_norad_cat_id": 19223,
        "meta_element_set_no": 999,
        "meta_rev_at_epoch": 80862,
        "meta_bstar": 0.00028289465,
        "meta_mean_motion_dot": 1.28e-06,
        "meta_mean_motion_ddot": 0,
        "tle_line1": "1 19223U 88052A   25340.24804856  .00000128  00000+0  28289-3 0  9993",
        "tle_line2": "2 19223  89.9873  78.2804 0031113  34.3900 342.7792 13.22934880808628"
      },
      "geometry": {
        "type": "Point",
        "coordinates": [
          78.27996511436496,
          0.5187956194969285
        ]
      }
    },
    {
      "type": "Feature",
      "properties": {
        "norad_id": 19419,
        "name": "OSCAR 25",
        "group": "nnss",
        "lat": 10.356668659460256,
        "lon": 20.21773905794047,
        "alt_km": 1121.0880399424977,
        "timestamp": "2025-12-06T16:45:42.990610+00:00",
        "meta_object_name": "OSCAR 25",
        "meta_object_id": "1988-074A",
        "meta_epoch": "2025-12-06T02:32:34.920672",
        "meta_mean_motion": 13.42621447,
        "meta_eccentricity": 0.00942541,
        "meta_inclination": 90.0352,
        "meta_ra_of_asc_node": 20.2221,
        "meta_arg_of_pericenter": 265.1111,
        "meta_mean_anomaly": 122.4206,
        "meta_ephemeris_type": 0,
        "meta_classification_type": "U",
        "meta_norad_cat_id": 19419,
        "meta_element_set_no": 999,
        "meta_rev_at_epoch": 82551,
        "meta_bstar": 0.00027876173,
        "meta_mean_motion_dot": 1.7e-06,
        "meta_mean_motion_ddot": 0,
        "tle_line1": "1 19419U 88074A   25340.10595973  .00000170  00000+0  27876-3 0  9994",
        "tle_line2": "2 19419  90.0352  20.2221 0094254 265.1111 122.4206 13.42621447825517"
      },
      "geometry": {
        "type": "Point",
        "coordinates": [
          20.21773905794047,
          10.356668659460256
        ]
      }
    },
    {
      "type": "Feature",
      "properties": {
        "norad_id": 19420,
        "name": "OSCAR 31",
        "group": "nnss",
        "lat": -74.01164129883766,
        "lon": -159.55568051152318,
        "alt_km": 1038.0263455198883,
        "timestamp": "2025-12-06T16:45:42.990620+00:00",
        "meta_object_name": "OSCAR 31",
        "meta_object_id": "1988-074B",
        "meta_epoch": "2025-12-06T08:23:47.882400",
        "meta_mean_motion": 13.42583098,
        "meta_eccentricity": 0.00925189,
        "meta_inclination": 90.0369,
        "meta_ra_of_asc_node": 20.5719,
        "meta_arg_of_pericenter": 258.5139,
        "meta_mean_anomaly": 111.8547,
        "meta_ephemeris_type": 0,
        "meta_classification_type": "U",
        "meta_norad_cat_id": 19420,
        "meta_element_set_no": 999,
        "meta_rev_at_epoch": 82565,
        "meta_bstar": 0.00024365971,
        "meta_mean_motion_dot": 1.5e-06,
        "meta_mean_motion_ddot": 0,
        "tle_line1": "1 19420U 88074B   25340.34985975  .00000150  00000+0  24366-3 0  9996",
        "tle_line2": "2 19420  90.0369  20.5719 0092518 258.5139 111.8547 13.42583098825653"
      },
      "geometry": {
        "type": "Point",
        "coordinates": [
          -159.55568051152318,
          -74.01164129883766
        ]
      }
    }
  ]
}